1 44236U 19029B   20048.50001157 +.00219465 +00000-0 +47036-2 0  9992
2 44236 053.0049 035.4706 0004264 271.1225 108.7909 15.43432382001801
1 44236U 19029B   20048.58334491  .01803847  00000-0  35968-1 0  9994
2 44236  53.0022  35.0755 0004766 269.4005 213.8347 15.43268063 41974
1 44236U 19029B   20048.83334491  .00839320  00000-0  16953-1 0  9999
2 44236  53.0007  33.8850 0003624 278.6787 154.5810 15.43649321 42012
1 44236U 19029B   20049.08334491 +.01774964 +00000-0 +34856-1 0  9992
2 44236 053.0012 032.6984 0002338 283.2916 100.2477 15.43767850001852
1 44236U 19029B   20049.25001157  .01219380  00000-0  23846-1 0  9994
2 44236  53.0026  31.9029 0005088 267.5479 322.9497 15.44050579 42071
1 44236U 19029B   20049.58334491  .01645659  00000-0  31955-1 0  9992
2 44236  53.0045  30.3120 0003421 260.9073  23.8532 15.44332020 42120
1 44236U 19029B   20049.91667824  .00506265  00000-0  99483-2 0  9997
2 44236  53.0052  28.7281 0007414 273.4102  65.9977 15.44850855 42182
1 44236U 19029B   20050.25001157  .00011710  00000-0  25074-3 0  9999
2 44236  53.0033  27.1413 0006235 281.5719 112.9096 15.45250146 42234
1 44236U 19029B   20050.58334491  .02603467  00000-0  47477-1 0  9992
2 44236  53.0015  25.5478 0005496 266.3512 183.6625 15.45213669 42284
1 44236U 19029B   20050.83334491  .00538850  00000-0  10223-1 0  9990
2 44236  53.0012  24.3536 0004469 279.6276 122.2453 15.45764063 42328
1 44236U 19029B   20050.91667824 +.00885102 +00000-0 +16537-1 0  9997
2 44236 053.0036 023.9588 0007444 274.0367 231.8511 15.45818604001779
1 44236U 19029B   20051.50002315  .00675247  00000-0  12451-1 0  9999
2 44236  53.0037  21.1708 0005280 286.2670 228.5040 15.46460422 42421
1 44236U 19029B   20051.58334491 +.02293067 +00000-0 +40918-1 0  9997
2 44236 053.0019 020.7729 0005262 267.4887 351.4674 15.46302592001775
1 44236U 19029B   20051.91667824  .00588890  00000-0  10674-1 0  9998
2 44236  53.0041  19.1823 0007000 274.4476  41.6229 15.46898878 42496
1 44236U 19029B   20052.25002315  .00774773  00000-0  13782-1 0  9994
2 44236  53.0044  17.5866 0005140 266.3228 107.3759 15.47182481 42547
1 44236U 19029B   20052.58334491  .02210827  00000-0  38246-1 0  9992
2 44236  53.0028  15.9903 0005150 266.0162 165.6083 15.47325287 42593
1 44236U 19029B   20052.91667824  .00851920  00000-0  14871-1 0  9999
2 44236  53.0058  14.3991 0007682 271.3466 218.6329 15.47886590 42641
1 44236U 19029B   20053.25001157  .00547735  00000-0  95185-2 0  9992
2 44236  53.0058  12.7999 0006523 265.8802 282.8895 15.48274678 42691
1 44236U 19029B   20053.58334491  .01847945  00000-0  30831-1 0  9991
2 44236  53.0049  11.2009 0005578 271.1599 336.8422 15.48426356 42743
1 44236U 19029B   20053.91667824  .00731480  00000-0  12302-1 0  9995
2 44236  53.0065   9.6054 0004175 280.8720  26.7328 15.48940321 42807
1 44236U 19029B   20054.25001157  .00556932  00000-0  93318-2 0  9998
2 44236  53.0063   8.0056 0007072 267.8565  99.7879 15.49283805 42855
1 44236U 19029B   20054.58334491  .01909379  00000-0  30647-1 0  9997
2 44236  53.0036   6.4045 0006967 269.5817 158.5349 15.49435162 42903
1 44236U 19029B   20054.89354810 +.00201601 +00000-0 +35412-2 0  9996
2 44236 053.0054 004.8963 0007631 273.6952 086.3183 15.49274406041038
1 44236U 19029B   20054.91668981  .00839380  00000-0  13462-1 0  9997
2 44236  53.0051   4.8066 0005816 283.6835 205.3404 15.49954297 42957
1 44236U 19029B   20055.21592639 +.00229004 +00000-0 +39650-2 0  9991
2 44236 053.0056 003.3479 0007137 267.8350 092.1840 15.49580707041088
1 44236U 19029B   20055.25001157  .00629799  00000-0  10076-1 0  9990
2 44236  53.0057   3.2044 0006866 267.3375 282.8987 15.50330787 43003
1 44236U 19029B   20055.58334491  .02147645  00000-0  32809-1 0  9991
2 44236  53.0034   1.5999 0005917 270.3429 341.6128 15.50455526 43053
1 44236U 19029B   20055.86044381 +.00203250 +00000-0 +34470-2 0  9998
2 44236 053.0062 000.2494 0007246 272.9740 087.0438 15.50266772041181
1 44236U 19029B   20055.91667824  .01998729  00000-0  30407-1 0  9995
2 44236  53.0041 359.9993 0007306 266.1679  47.8944 15.50815206 43112
1 44236U 19029B   20056.25001157  .00696837  00000-0  10812-1 0  9996
2 44236  53.0068 358.3939 0006685 263.7356 112.8337 15.51334818 43168
1 44236U 19029B   20056.58334491 +.01781054 +00000-0 +26278-1 0  9992
2 44236 053.0043 356.7873 0004989 265.1819 174.3448 15.51524701043219
1 44236U 19029B   20056.91667824  .01341267  00000-0  19761-1 0  9995
2 44236  53.0052 355.1854 0003555 275.5330 227.3348 15.51947820 43266
1 44236U 19029B   20057.16667824  .00134574  00000-0  21394-2 0  9999
2 44236  53.0038 353.9785 0002442 291.1577 169.4819 15.52378440 43301
1 44236U 19029B   20057.58334491  .01030607  00000-0  14939-1 0  9995
2 44236  53.0034 351.9626 0000730 329.9048 300.9170 15.52680150 43362
1 44236U 19029B   20058.25001157 +.00835813 +00000-0 +11867-1 0  9998
2 44236 053.0050 348.7514 0002483 298.2208 102.2162 15.53387706043471
1 44236U 19029B   20058.66667824  .01133781  00000-0  15890-1 0  9998
2 44236  53.0044 346.7323 0001388 344.0621 228.2328 15.53794477 43539
1 44236U 19029B   20058.91667824  .02791720  00000-0  37337-1 0  9990
2 44236  53.0038 345.5318 0007293 268.4711 263.2705 15.53832363 43572
1 44236U 19029B   20059.25002315  .00556096  00000-0  77359-2 0  9998
2 44236  53.0058 343.9221 0005520 272.4897 325.5477 15.54504103 43623
1 44236U 19029B   20059.58334491  .00305401  00000-0  43752-2 0  9999
2 44236  53.0062 342.2876 0007057 272.2536  32.3975 15.54582579 43675
1 44236U 19029B   20059.91667824 -.00013257  00000-0 -18953-3 0  9998
2 44236  53.0063 340.6758 0006940 274.5866  96.6999 15.54664346 43737
1 44236U 19029B   20060.17188408  .00150192  00000-0  22204-2 0  9995
2 44236  53.0057 339.4435 0007246 273.7258  86.2923 15.54298733 43773
1 44236U 19029B   20060.33334491 +.00095766 +00000-0 +14107-2 0  9996
2 44236 053.0061 338.6611 0007047 277.6654 266.9490 15.54635307001791
1 44236U 19029B   20060.49327266  .00056610  00000-0  84512-3 0  9998
2 44236  53.0056 337.8885 0006921 276.0240  83.9980 15.54499564 43827
1 44236U 19029B   20060.91667824  .02089545  00000-0  27880-1 0  9990
2 44236  53.0057 335.8388 0007263 276.2014 295.1057 15.54340487 43882
1 44236U 19029B   20061.25001157  .00038190  00000-0  57080-3 0  9994
2 44236  53.0055 334.2273 0007024 281.7310 356.2178 15.54641862 43931
1 44236U 19029B   20061.58334491 +.00096276 +00000-0 +14186-2 0  9998
2 44236 053.0055 332.6130 0006972 280.4846 064.1421 15.54625882001772
1 44236U 19029B   20061.90751537 +.00010058 +00000-0 +15593-3 0  9996
2 44236 053.0051 331.0468 0006712 274.8806 085.1437 15.54685421042129
1 44236U 19029B   20061.91667824  .00717311  00000-0  98941-2 0  9995
2 44236  53.0055 331.0017 0007030 280.1436 131.1582 15.54543862 44044
1 44236U 19029B   20062.25001157  .00034534  00000-0  51686-3 0  9999
2 44236  53.0056 329.3899 0007041 285.2197 192.7499 15.54653489 44097
1 44236U 19029B   20062.58334491 +.00280632 +00000-0 +40310-2 0  9998
2 44236 053.0059 327.7754 0007071 284.0636 260.5999 15.54599400001779
1 44236U 19029B   20062.91667824  .00006274  00000-0  10004-3 0  9990
2 44236  53.0062 326.1642 0006942 286.7477 324.5826 15.54676492 44190
1 44236U 19029B   20063.58334491 +.00083437 +00000-0 +12315-2 0  9997
2 44236 053.0065 322.9379 0006992 288.6347 096.0863 15.54644609001781
1 44236U 19029B   20063.90035823 +.00000853 +00000-0 +19825-4 0  9996
2 44236 053.0053 321.4062 0007025 287.9238 072.1005 15.54680106042432
1 44236U 19029B   20064.58334491 +.00078585 +00000-0 +11607-2 0  9999
2 44236 053.0061 318.1007 0006967 292.4653 292.3441 15.54651675001770
1 44236U 19029B   20064.91667824 -.00025426 +00000-0 -37027-3 0  9998
2 44236 053.0061 316.4899 0006962 295.0389 356.4622 15.54695143001827
1 44236U 19029B   20065.25001157 +.00005277 +00000-0 +85248-4 0  9996
2 44236 053.0060 314.8776 0007091 296.7852 061.4184 15.54691078001772
1 44236U 19029B   20065.50001157  .00203566  00000-0  29502-2 0  9994
2 44236  53.0063 313.6668 0006996 295.8071  22.4428 15.54639038 44603
1 44236U 19029B   20065.83334491 -.00034783  00000-0 -50945-3 0  9991
2 44236  53.0066 312.0551 0006973 297.9095  87.0318 15.54712886 44657
1 44236U 19029B   20065.91667824 -.00006152 +00000-0 -83900-4 0  9996
2 44236 053.0064 311.6525 0007021 298.8845 192.7393 15.54698216001783
1 44236U 19029B   20066.50001157  .00321082  00000-0  45834-2 0  9995
2 44236  53.0067 308.8294 0007131 299.7680 218.6239 15.54624054 44756
1 44236U 19029B   20066.58334491 +.00255850 +00000-0 +36820-2 0  9997
2 44236 053.0067 308.4260 0007022 300.1800 324.8899 15.54637814001770
1 44236U 19029B   20066.83335648 -.00025574  00000-0 -37214-3 0  9999
2 44236  53.0067 307.2179 0006988 302.4487 282.7154 15.54719352 44807
1 44236U 19029B   20067.58334491 +.00101841 +00000-0 +14964-2 0  9993
2 44236 053.0062 303.5889 0006986 304.2012 161.0387 15.54675868044924
1 44236U 19029B   20067.91667824  .00101395  00000-0  14892-2 0  9993
2 44236  53.0058 301.9782 0007106 307.0086 224.9605 15.54688956 44979
1 44236U 19029B   20068.25001157 -.00034439 +00000-0 -50398-3 0  9990
2 44236 053.0054 300.3654 0007125 307.9855 290.7072 15.54729376045028
1 44236U 19029B   20068.66667824 +.00122494 +00000-0 +17926-2 0  9990
2 44236 053.0057 298.3486 0006994 307.9849 104.1321 15.54693943045098
1 44236U 19029B   20069.25002315 -.00031743  00000-0 -46367-3 0  9994
2 44236  53.0056 295.5276 0007198 311.6235 127.3512 15.54737274 45186
1 44236U 19029B   20069.58335648  .00370222  00000-0  52469-2 0  9993
2 44236  53.0057 293.9135 0007115 311.4972 194.2412 15.54646265 45235
1 44236U 19029B   20069.87875147 +.00008078 +00000-0 +12643-3 0  9996
2 44236 053.0039 292.4853 0007156 312.8725 047.1683 15.54736374043361
1 44236U 19029B   20069.91667824 -.00001225  00000-0 -10908-4 0  9994
2 44236  53.0057 292.3028 0007179 315.1230 257.2978 15.54726057 45287
1 44236U 19029B   20070.25001157 +.00202934 +00000-0 +29348-2 0  9998
2 44236 053.0053 290.6894 0007313 315.6778 323.4836 15.54697147001779
